[{"OBJECT_NAME":"STARLINK-5313","OBJECT_ID":"2023-010AW","EPOCH":"2026-03-09T23:18:47.650176","MEAN_MOTION":14.98330211,"ECCENTRICITY":0.00027416,"INCLINATION":70.0013,"RA_OF_ASC_NODE":3.7787,"ARG_OF_PERICENTER":268.6791,"MEAN_ANOMALY":91.4054,"EPHEMERIS_TYPE":0,"CLASSIFICATION_TYPE":"U","NORAD_CAT_ID":55313,"ELEMENT_SET_NO":999,"REV_AT_EPOCH":17468,"BSTAR":-1.3585395e-5,"MEAN_MOTION_DOT":-2.55e-6,"MEAN_MOTION_DDOT":0},{"OBJECT_NAME":"FREGAT DEB","OBJECT_ID":"2011-037HS","EPOCH":"2026-03-09T07:41:20.544288","MEAN_MOTION":12.53871844,"ECCENTRICITY":0.12901924,"INCLINATION":51.3513,"RA_OF_ASC_NODE":80.4402,"ARG_OF_PERICENTER":45.7358,"MEAN_ANOMALY":324.2365,"EPHEMERIS_TYPE":0,"CLASSIFICATION_TYPE":"U","NORAD_CAT_ID":46015,"ELEMENT_SET_NO":999,"REV_AT_EPOCH":23949,"BSTAR":0.0078344163,"MEAN_MOTION_DOT":0.00043659,"MEAN_MOTION_DDOT":0}]
